start=new Date('2022-11-20T00:00:00.000Z').valueOf();
sats=[{"COUNTRY_CODE":"US","MEAN_ANOMALY":"274.8887","RCS_SIZE":"LARGE","MEAN_ELEMENT_THEORY":"SGP4","GP_ID":"218235832","DECAY_DATE":null,"OBJECT_ID":"2021-012AK","REV_AT_EPOCH":"9846","ELEMENT_SET_NO":"999","TLE_LINE2":"2 47653  53.0574  66.1594 0001539  85.2278 274.8887 15.06402813 98463","NORAD_CAT_ID":"47653","BSTAR":"0.00006328600000","EPOCH":"2022-11-19T13:23:53.297664","APOAPSIS":"548.271","MEAN_MOTION":"15.06402813","ARG_OF_PERICENTER":"85.2278","RA_OF_ASC_NODE":"66.1594","CLASSIFICATION_TYPE":"U","MEAN_MOTION_DDOT":"0.0000000000000","INCLINATION":"53.0574","ECCENTRICITY":"0.00015390","REF_FRAME":"TEME","OBJECT_TYPE":"PAYLOAD","TIME_SYSTEM":"UTC","PERIOD":"95.592","SEMIMAJOR_AXIS":"6925.340","EPHEMERIS_TYPE":"0","OBJECT_NAME":"STARLINK-2037","PERIAPSIS":"546.139","FILE":"3663561","TLE_LINE1":"1 47653U 21012AK  22323.55825576  .00000661  00000-0  63286-4 0  9998","LAUNCH_DATE":"2021-02-16","CENTER_NAME":"EARTH","MEAN_MOTION_DOT":"0.00000661","SITE":"AFETR"},{"MEAN_MOTION":"15.06398382","ARG_OF_PERICENTER":"69.4729","CLASSIFICATION_TYPE":"U","RA_OF_ASC_NODE":"84.9344","MEAN_MOTION_DDOT":"0.0000000000000","MEAN_ANOMALY":"290.6417","COUNTRY_CODE":"US","OBJECT_ID":"2021-012AL","DECAY_DATE":null,"REV_AT_EPOCH":"9823","RCS_SIZE":"LARGE","MEAN_ELEMENT_THEORY":"SGP4","GP_ID":"218235083","ELEMENT_SET_NO":"999","BSTAR":"-0.00001599400000","NORAD_CAT_ID":"47654","APOAPSIS":"548.228","EPOCH":"2022-11-19T19:59:19.312224","TLE_LINE2":"2 47654  53.0552  84.9344 0001457  69.4729 290.6417 15.06398382 98230","TLE_LINE1":"1 47654U 21012AL  22323.83286241 -.00000520  00000-0 -15994-4 0  9999","FILE":"3663561","LAUNCH_DATE":"2021-02-16","CENTER_NAME":"EARTH","MEAN_MOTION_DOT":"-0.00000520","SITE":"AFETR","ECCENTRICITY":"0.00014570","REF_FRAME":"TEME","INCLINATION":"53.0552","TIME_SYSTEM":"UTC","OBJECT_TYPE":"PAYLOAD","EPHEMERIS_TYPE":"0","SEMIMAJOR_AXIS":"6925.354","PERIOD":"95.592","PERIAPSIS":"546.209","OBJECT_NAME":"STARLINK-2038"},{"EPHEMERIS_TYPE":"0","SEMIMAJOR_AXIS":"6925.352","PERIOD":"95.592","PERIAPSIS":"546.306","OBJECT_NAME":"STARLINK-2039","ECCENTRICITY":"0.00013160","REF_FRAME":"TEME","INCLINATION":"53.0553","TIME_SYSTEM":"UTC","OBJECT_TYPE":"PAYLOAD","CENTER_NAME":"EARTH","MEAN_MOTION_DOT":"-0.00000616","SITE":"AFETR","TLE_LINE1":"1 47655U 21012AM  22323.75913821 -.00000616  00000-0 -22438-4 0  9999","FILE":"3663561","LAUNCH_DATE":"2021-02-16","ELEMENT_SET_NO":"999","NORAD_CAT_ID":"47655","BSTAR":"-0.00002243800000","APOAPSIS":"548.128","EPOCH":"2022-11-19T18:13:09.541344","TLE_LINE2":"2 47655  53.0553  85.2558 0001316  87.2538 272.8602 15.06398867 98228","MEAN_ANOMALY":"272.8602","COUNTRY_CODE":"US","DECAY_DATE":null,"OBJECT_ID":"2021-012AM","REV_AT_EPOCH":"9822","RCS_SIZE":"LARGE","GP_ID":"218234834","MEAN_ELEMENT_THEORY":"SGP4","MEAN_MOTION_DDOT":"0.0000000000000","MEAN_MOTION":"15.06398867","ARG_OF_PERICENTER":"87.2538","CLASSIFICATION_TYPE":"U","RA_OF_ASC_NODE":"85.2558"},{"ELEMENT_SET_NO":"999","EPOCH":"2022-11-19T13:50:25.879488","APOAPSIS":"548.173","NORAD_CAT_ID":"47656","BSTAR":"0.00013213000000","TLE_LINE2":"2 47656  53.0552  66.0813 0001404  87.0356 273.0794 15.06404335 98473","MEAN_ANOMALY":"273.0794","COUNTRY_CODE":"US","REV_AT_EPOCH":"9847","DECAY_DATE":null,"OBJECT_ID":"2021-012AN","GP_ID":"218235577","MEAN_ELEMENT_THEORY":"SGP4","RCS_SIZE":"LARGE","MEAN_MOTION_DDOT":"0.0000000000000","ARG_OF_PERICENTER":"87.0356","MEAN_MOTION":"15.06404335","CLASSIFICATION_TYPE":"U","RA_OF_ASC_NODE":"66.0813","SEMIMAJOR_AXIS":"6925.335","EPHEMERIS_TYPE":"0","PERIOD":"95.592","PERIAPSIS":"546.228","OBJECT_NAME":"STARLINK-2040","REF_FRAME":"TEME","ECCENTRICITY":"0.00014040","INCLINATION":"53.0552","TIME_SYSTEM":"UTC","OBJECT_TYPE":"PAYLOAD","MEAN_MOTION_DOT":"0.00001687","CENTER_NAME":"EARTH","SITE":"AFETR","TLE_LINE1":"1 47656U 21012AN  22323.57668842  .00001687  00000-0  13213-3 0  9997","FILE":"3663561","LAUNCH_DATE":"2021-02-16"},{"REV_AT_EPOCH":"9822","DECAY_DATE":null,"OBJECT_ID":"2021-012AP","GP_ID":"218236332","MEAN_ELEMENT_THEORY":"SGP4","RCS_SIZE":"LARGE","MEAN_ANOMALY":"261.7870","COUNTRY_CODE":"US","APOAPSIS":"548.203","EPOCH":"2022-11-19T18:45:01.711584","NORAD_CAT_ID":"47657","BSTAR":"0.00009580600000","TLE_LINE2":"2 47657  53.0556  85.1551 0001368  98.3274 261.7870 15.06386165 98224","ELEMENT_SET_NO":"999","CLASSIFICATION_TYPE":"U","RA_OF_ASC_NODE":"85.1551","ARG_OF_PERICENTER":"98.3274","MEAN_MOTION":"15.06386165","MEAN_MOTION_DDOT":"0.0000000000000","TIME_SYSTEM":"UTC","OBJECT_TYPE":"PAYLOAD","REF_FRAME":"TEME","ECCENTRICITY":"0.00013680","INCLINATION":"53.0556","PERIAPSIS":"546.309","OBJECT_NAME":"STARLINK-2041","SEMIMAJOR_AXIS":"6925.391","EPHEMERIS_TYPE":"0","PERIOD":"95.593","LAUNCH_DATE":"2021-02-16","TLE_LINE1":"1 47657U 21012AP  22323.78126981  .00001145  00000-0  95806-4 0  9992","FILE":"3663561","SITE":"AFETR","CENTER_NAME":"EARTH","MEAN_MOTION_DOT":"0.00001145"},{"COUNTRY_CODE":"US","MEAN_ANOMALY":"273.5404","RCS_SIZE":"LARGE","MEAN_ELEMENT_THEORY":"SGP4","GP_ID":"218234584","DECAY_DATE":null,"OBJECT_ID":"2021-012AQ","REV_AT_EPOCH":"9822","ELEMENT_SET_NO":"999","TLE_LINE2":"2 47658  53.0555  85.7895 0001325  86.5737 273.5404 15.06404643 98223","BSTAR":"-0.00001383300000","NORAD_CAT_ID":"47658","EPOCH":"2022-11-19T15:23:18.607776","APOAPSIS":"548.117","MEAN_MOTION":"15.06404643","ARG_OF_PERICENTER":"86.5737","RA_OF_ASC_NODE":"85.7895","CLASSIFICATION_TYPE":"U","MEAN_MOTION_DDOT":"0.0000000000000","INCLINATION":"53.0555","ECCENTRICITY":"0.00013250","REF_FRAME":"TEME","OBJECT_TYPE":"PAYLOAD","TIME_SYSTEM":"UTC","PERIOD":"95.592","SEMIMAJOR_AXIS":"6925.334","EPHEMERIS_TYPE":"0","OBJECT_NAME":"STARLINK-2042","PERIAPSIS":"546.282","FILE":"3663561","TLE_LINE1":"1 47658U 21012AQ  22323.64118759 -.00000487  00000-0 -13833-4 0  9992","LAUNCH_DATE":"2021-02-16","MEAN_MOTION_DOT":"-0.00000487","CENTER_NAME":"EARTH","SITE":"AFETR"},{"TLE_LINE2":"2 47659  53.0557 325.3718 0001148  63.2773 296.8334 15.06410150 99870","APOAPSIS":"547.977","EPOCH":"2022-11-19T17:36:00.036864","NORAD_CAT_ID":"47659","BSTAR":"-0.00005242600000","ELEMENT_SET_NO":"999","MEAN_ELEMENT_THEORY":"SGP4","GP_ID":"218235334","RCS_SIZE":"LARGE","REV_AT_EPOCH":"9987","OBJECT_ID":"2021-012AR","DECAY_DATE":null,"COUNTRY_CODE":"US","MEAN_ANOMALY":"296.8334","MEAN_MOTION_DDOT":"0.0000000000000","RA_OF_ASC_NODE":"325.3718","CLASSIFICATION_TYPE":"U","ARG_OF_PERICENTER":"63.2773","MEAN_MOTION":"15.06410150","OBJECT_NAME":"STARLINK-2043","PERIAPSIS":"546.387","PERIOD":"95.591","SEMIMAJOR_AXIS":"6925.317","EPHEMERIS_TYPE":"0","OBJECT_TYPE":"PAYLOAD","TIME_SYSTEM":"UTC","INCLINATION":"53.0557","REF_FRAME":"TEME","ECCENTRICITY":"0.00011480","SITE":"AFETR","CENTER_NAME":"EARTH","MEAN_MOTION_DOT":"-0.00001062","LAUNCH_DATE":"2021-02-16","FILE":"3663561","TLE_LINE1":"1 47659U 21012AR  22323.73333376 -.00001062  00000-0 -52426-4 0  9998"},{"ELEMENT_SET_NO":"999","TLE_LINE2":"2 47660  53.0548 316.2072 0001788  51.2440 308.8709 15.06403302 99503","NORAD_CAT_ID":"47660","BSTAR":"0.00007449600000","APOAPSIS":"548.442","EPOCH":"2022-11-19T16:28:26.667264","COUNTRY_CODE":"US","MEAN_ANOMALY":"308.8709","RCS_SIZE":"LARGE","GP_ID":"218210354","MEAN_ELEMENT_THEORY":"SGP4","OBJECT_ID":"2021-012AS","DECAY_DATE":null,"REV_AT_EPOCH":"9950","MEAN_MOTION_DDOT":"0.0000000000000","MEAN_MOTION":"15.06403302","ARG_OF_PERICENTER":"51.2440","RA_OF_ASC_NODE":"316.2072","CLASSIFICATION_TYPE":"U","PERIOD":"95.592","SEMIMAJOR_AXIS":"6925.338","EPHEMERIS_TYPE":"0","OBJECT_NAME":"STARLINK-2044","PERIAPSIS":"545.965","INCLINATION":"53.0548","ECCENTRICITY":"0.00017880","REF_FRAME":"TEME","OBJECT_TYPE":"PAYLOAD","TIME_SYSTEM":"UTC","CENTER_NAME":"EARTH","MEAN_MOTION_DOT":"0.00000828","SITE":"AFETR","FILE":"3663371","TLE_LINE1":"1 47660U 21012AS  22323.68641976  .00000828  00000-0  74496-4 0  9990","LAUNCH_DATE":"2021-02-16"},{"SITE":"AFETR","CENTER_NAME":"EARTH","MEAN_MOTION_DOT":"0.00003620","LAUNCH_DATE":"2021-02-16","FILE":"3663371","TLE_LINE1":"1 47661U 21012AT  22323.40713170  .00003620  00000-0  26176-3 0  9991","OBJECT_NAME":"STARLINK-2051","PERIAPSIS":"546.173","PERIOD":"95.592","EPHEMERIS_TYPE":"0","SEMIMAJOR_AXIS":"6925.322","OBJECT_TYPE":"PAYLOAD","TIME_SYSTEM":"UTC","INCLINATION":"53.0545","ECCENTRICITY":"0.00014640","REF_FRAME":"TEME","MEAN_MOTION_DDOT":"0.0000000000000","RA_OF_ASC_NODE":"66.8383","CLASSIFICATION_TYPE":"U","MEAN_MOTION":"15.06408560","ARG_OF_PERICENTER":"85.3357","TLE_LINE2":"2 47661  53.0545  66.8383 0001464  85.3357 274.7799 15.06408560 97936","BSTAR":"0.00026176000000","NORAD_CAT_ID":"47661","EPOCH":"2022-11-19T09:46:16.178880","APOAPSIS":"548.201","ELEMENT_SET_NO":"999","RCS_SIZE":"LARGE","GP_ID":"218210358","MEAN_ELEMENT_THEORY":"SGP4","OBJECT_ID":"2021-012AT","DECAY_DATE":null,"REV_AT_EPOCH":"9793","COUNTRY_CODE":"US","MEAN_ANOMALY":"274.7799"},{"FILE":"3663316","TLE_LINE1":"1 47662U 21012AU  22323.25506424  .00002942  00000-0  21628-3 0  9990","LAUNCH_DATE":"2021-02-16","CENTER_NAME":"EARTH","MEAN_MOTION_DOT":"0.00002942","SITE":"AFETR","INCLINATION":"53.0553","ECCENTRICITY":"0.00013460","REF_FRAME":"TEME","OBJECT_TYPE":"PAYLOAD","TIME_SYSTEM":"UTC","PERIOD":"95.592","EPHEMERIS_TYPE":"0","SEMIMAJOR_AXIS":"6925.341","OBJECT_NAME":"STARLINK-2052","PERIAPSIS":"546.274","MEAN_MOTION":"15.06402316","ARG_OF_PERICENTER":"85.2488","RA_OF_ASC_NODE":"67.5223","CLASSIFICATION_TYPE":"U","MEAN_MOTION_DDOT":"0.0000000000000","COUNTRY_CODE":"US","MEAN_ANOMALY":"274.8654","RCS_SIZE":"LARGE","GP_ID":"218205065","MEAN_ELEMENT_THEORY":"SGP4","DECAY_DATE":null,"OBJECT_ID":"2021-012AU","REV_AT_EPOCH":"9843","ELEMENT_SET_NO":"999","TLE_LINE2":"2 47662  53.0553  67.5223 0001346  85.2488 274.8654 15.06402316 98430","BSTAR":"0.00021628000000","NORAD_CAT_ID":"47662","APOAPSIS":"548.139","EPOCH":"2022-11-19T06:07:17.550336"}];
